#dP2020  2  1  0  0  0.00000000      96 __u+U ITR00 FIT  IAC
## 2090 518400.00000000   900.00000000 58880 0.0000000000000
+  114   C01C02C03C04C05C06C07C08C09C10C11C12C13C14C16C19C20
+        C21C22C23C24C25C26C27C28C29C30C32C33C34C35C36C37E01
+        E02E03E04E05E07E08E09E11E12E13E14E15E18E19E21E24E25
+        E26E27E30E31E33E36G01G02G03G04G05G06G07G08G09G10G11
+        G12G13G14G15G16G17G18G19G20G21G22G23G24G25G26G27G28
+        G29G30G31G32J01J02J03R01R02R03R04R05R07R08R09R11R12
+        R13R14R15R16R17R18R19R20R21R22R23R26  0  0  0  0  0
++        13 13 13 13 12  8  0  8  8  8  7  8  8  7  8  8  8
++         8  8  8  8  8  8  8  8  8  8  8  8  8  8  8  8  4
++         4  5  5  5  4  4  5  5  5  5  5  5  4  4  4  4  4
++         4  5  5  4  4  5  3  3  3  3  4  3  3  3  3  3  3
++         3  3  3  3  3  3  4  4  3  3  4  3  3  4  3  3  3
++         3  3  3  3  8  8  8  6  5  5  5  5  5  5  5  5  6
++         6  5  5  6  5  5  6  6  5  6  6  8  0  0  0  0  0
%c M  cc GPS ccc cccc cccc cccc cccc ccccc ccccc ccccc ccccc
%c cc cc ccc ccc cccc cccc cccc cccc ccccc ccccc ccccc ccccc
%f  0.0000000  0.000000000  0.00000000000  0.000000000000000
%f  0.0000000  0.000000000  0.00000000000  0.000000000000000
%i    0    0    0    0      0      0      0      0         0
%i    0    0    0    0      0      0      0      0         0
/* INFORMATION & ANALYSIS CENTER (IAC)            RAPID DATA
/* S/V CLOCKS ARE ALIGNED TO GNSS TIME                      
/* G:C1WC2W R:C1PC2P E:C1XC5X C:C2IC6I J:C1CC2S             
/* PCV:IGS14_2086 OL/AL:FES2004  NONE     YN ORB:CoN CLK:CoN
*  2020 02 01  7 45  0.00000000
PC01 -32296.789053  27116.189802    192.437202    148.986900
PC02   4380.506577  41898.216506  -1106.175231    573.524271
PC03 -14770.244971  39466.717039   -807.315423   -355.824425
PC04 -39643.049823  14428.017942    -77.912298   -425.065952
PC05  21909.280122  35977.879127  -1149.909271   -273.140777
PC06 -18004.826707  37862.254730   1669.985297    251.685702
PC07      0.000000      0.000000      0.000000 999999.999999
PC08 -20931.879498  19969.186644 -30698.722552   -102.283157
PC09 -10160.198505  38325.431580  14015.724008    302.561697
PC10   5103.927101  35602.044755  22491.846011   -616.840378
PC11  19682.256020  -1413.397945 -19645.271419   -155.542721
PC12   5968.732511  15188.076333 -22599.551851    314.434920
PC13  -5923.371862  23251.398272 -34603.890671    240.383782
PC14  17230.944244   9157.067360  19995.363300    122.944604
PC16 -17014.462160  38388.660980   2533.716154   -808.212407
PC19 -16043.657234   1521.470940 -22758.922493    313.671314
PC20 -15782.542905 -17756.493664 -14607.368145   -642.889487
PC21   6078.173432  27129.493041  -2495.167581    -33.050009
PC22  -7015.496358  20307.470777 -17819.676243   -774.829176
PC23  13575.446780 -12009.174786 -21217.616393   -881.420274
PC24  23480.993295  12404.349742   8516.810318   -913.962109
PC25  26267.366445   -658.385546  -9374.359211   -500.918706
PC26   8033.676815  16921.834011  20667.835215    555.140866
PC27   2664.018355 -20724.035111  18498.346058    270.718409
PC28  17845.014330 -21170.192095   3465.765650    261.658082
PC29 -22210.293982  10103.500903  13537.905585    181.670381
PC30 -14169.126404  -7888.713554  22712.527970    265.144662
PC32  -6248.956346 -27078.581589   2526.355488   -862.879724
PC33  16101.450672  -1509.220310  22747.194588   -852.332222
PC34  14495.121035   7559.363595 -22617.694240   -435.803912
PC35 -17188.459711  21707.848399  -3316.351343   -828.405069
PC36 -26351.990362    -95.871060   9204.258454   -836.559322
PC37  -7028.266568 -17095.778847 -20896.990237   -895.848767
PE01  -4137.945409 -20822.664734 -20631.478710   -785.609078
PE02   4194.385654  20834.325747  20593.351477    109.700083
PE03  -3386.975828  29379.796369   1380.535254   -261.401824
PE04  -9638.243620 -21512.571612 -17903.420447   -456.998303
PE05 -14567.488999  20096.764882 -16130.262552   -409.170273
PE07  17162.549529    868.504282  24101.969486   -334.865993
PE08   9786.627122  21284.844217  18096.683536   6226.612256
PE09 -17037.189941   -618.634555 -24198.286078   6170.407063
PE11 -27167.515398   2924.245941  11364.905914   1056.279218
PE12 -13692.933389 -11337.048597  23674.943169   5973.140362
PE13  27082.002498  -2920.730380 -11577.693752    397.937230
PE14 -13796.782769  -5596.305864  18014.294407   -889.034347
PE15  13944.362884  11052.657267 -23640.233798    878.828246
PE18  18555.809994   9212.667696 -25157.884294   -986.102305
PE19   4770.584686 -29208.630064    658.762033     -1.726037
PE21  14611.240426  -8908.658538 -24154.223426   -580.229947
PE24 -24969.785102  -8522.449094  13433.261892   5633.177052
PE25 -14710.159137   8811.258427  24132.090584   -502.730915
PE26  24259.043119 -15197.455394   7537.550325   3580.407256
PE27  24975.459020   8335.162693 -13512.161587    291.648910
PE30  20429.676333  20777.474217   5142.025738   4178.694939
PE31 -20644.219468 -20615.824096  -5011.851861   -471.541832
PE33   7395.371538 -18563.660455  21853.837362   -470.637334
PE36 -24348.334743  15175.041366  -7261.070758    603.969481
PG01   8000.746384  13856.442149 -21461.991395   -280.816090
PG02  15737.270225 -14212.332371  16575.580309   -396.641200
PG03  12820.091598  23018.787250  -3784.086862    -84.576641
PG04   3057.882954  20202.754377  16963.925365    -42.571125
PG05   4052.544501 -17589.312015  19283.891619     -6.930933
PG06  24797.164448  -6763.345836   6827.304651   -197.288873
PG07  23259.036279   6684.416737  11766.446947   -204.727526
PG08  -4766.199748  24595.658001  -8408.614465    -22.216689
PG09  11330.228302  11381.311327  21097.322418   -145.604645
PG10 -18506.702520  -3891.380983 -18666.570844   -229.784739
PG11   -447.721535  18258.879933 -19848.016551   -373.758190
PG12  -8903.655021 -24160.827847  -7100.495382    156.100469
PG13  12783.462554 -23131.524113  -2281.737144    -15.991224
PG14 -17778.462725  16353.188206 -10497.550281    -35.237083
PG15   1406.192576 -24794.115467  -9171.289714   -254.632041
PG16  -5738.642821  16495.297920  19662.175067   -119.703209
PG17  17579.333599  -7279.183940 -18081.064172    208.544825
PG18  -1287.056349  15728.669423 -21862.087332      0.223521
PG19  18619.812020 -13753.225315 -13321.518422   -204.689711
PG20 -21395.743137 -12199.825572 -10293.999213    527.847054
PG21 -24038.706573  -4274.307050  10942.225326    -47.409613
PG22   7940.533068  22705.213310 -11164.366068   -783.615533
PG23   5548.000328  19180.089560  17682.127673   -139.321054
PG24  -6223.376671 -14926.866319 -21296.374067     -8.392683
PG25 -17374.443656 -19752.033828   4377.404586    -14.583662
PG26 -12562.508681   9029.915977  21562.783675    139.266887
PG27 -12369.040599  23197.546879   2070.531172   -198.163248
PG28  17117.168641   3896.713161 -19295.452823    741.937259
PG29  -9338.735859 -12485.620465  21467.312099    -21.964702
PG30  26649.306068   -632.831157    885.753930   -142.707739
PG31 -23987.243811   7748.127181   9043.975914    -20.311674
PG32 -17682.029709   8279.141409 -17878.652237    200.640115
PJ01 -18647.018447  27721.580495 -21138.107704   -325.257049
PJ02 -27738.271303  20217.330848  29298.154813     -1.063863
PJ03 -32651.719515  26453.903632   9244.666883     -0.299487
PR01  -1479.351662 -25306.219174   2779.826488     56.448975
PR02  -9457.813557 -16735.259630 -16764.170971    409.793305
PR03 -10846.909172   1624.251304 -22992.223409      9.260232
PR04  -5799.319341  18889.182383 -16107.369397     37.284330
PR05   2342.724934  25388.467831    -33.917027     44.199526
PR07  10793.076211  -2339.860564  23025.938999    -32.685608
PR08   5977.554172 -18849.953380  16170.256757    -50.309250
PR09  22737.972235  11455.207770   2058.500637    114.466220
PR11   9325.125640  -7696.824555 -22454.133301    -11.965736
PR12  -8042.763333 -13951.266348 -19769.091861    101.882666
PR13 -21620.182878 -12420.975892  -5412.123516    -34.238987
PR14 -22154.636292  -3807.558697  12057.718405     47.673197
PR15 -10074.745960   7046.971705  22367.293161    105.818019
PR16   8504.194656  13963.729044  19506.979636     -1.269922
PR17 -21017.525678   8054.378824  12051.967913    297.252581
PR18 -19223.399801  16037.778307  -4710.999762     23.572155
PR19  -7855.504042  15334.042289 -18802.434859    -76.887829
PR20  10557.533944   5125.713365 -22639.277312   -402.959587
PR21  21176.427794  -8604.950863 -11289.534733   -102.007308
PR22  17964.717306 -16561.279201   7552.517032    -12.185857
PR23   1614.340673 -13068.342613  21847.295683    283.542805
PR26   7036.646610   7814.936517 -23221.062299   -409.894313
EOF
